{"type":"FeatureCollection","features":[{"type":"Feature","properties":{"nome":"Croat\u00e1","codigo_ibge":"2304236"},"geometry":{"type":"Polygon","coordinates":[[[-41.007363,-4.273043],[-40.927418,-4.289472],[-40.884181,-4.317794],[-40.883631,-4.31635],[-40.882806,-4.316213],[-40.881981,-4.316488],[-40.881156,-4.316144],[-40.880675,-4.315388],[-40.880675,-4.313532],[-40.8804,-4.313326],[-40.875313,-4.314426],[-40.874969,-4.315388],[-40.876619,-4.317382],[-40.876757,-4.319994],[-40.877582,-4.321919],[-40.877513,-4.323018],[-40.876757,-4.323431],[-40.875932,-4.323293],[-40.874282,-4.321369],[-40.872838,-4.321369],[-40.871601,-4.321919],[-40.870226,-4.323018],[-40.869539,-4.323087],[-40.869058,-4.322537],[-40.869126,-4.320338],[-40.868852,-4.319581],[-40.868233,-4.319031],[-40.866171,-4.318894],[-40.865552,-4.318619],[-40.864796,-4.317794],[-40.861978,-4.316282],[-40.861428,-4.316007],[-40.860328,-4.315938],[-40.85964,-4.315457],[-40.859434,-4.314426],[-40.860122,-4.312638],[-40.860671,-4.311539],[-40.862321,-4.310095],[-40.863146,-4.309064],[-40.863421,-4.30762],[-40.863765,-4.306933],[-40.864521,-4.306383],[-40.867339,-4.306589],[-40.870158,-4.304321],[-40.869951,-4.303977],[-40.86837,-4.303771],[-40.866514,-4.302121],[-40.864521,-4.301296],[-40.862184,-4.299646],[-40.859503,-4.299852],[-40.858815,-4.299715],[-40.858128,-4.298684],[-40.857097,-4.29834],[-40.855378,-4.296896],[-40.854416,-4.296553],[-40.853385,-4.296965],[-40.850567,-4.29944],[-40.850292,-4.300471],[-40.849604,-4.301433],[-40.849329,-4.303221],[-40.848436,-4.304664],[-40.847955,-4.30487],[-40.846167,-4.30487],[-40.844999,-4.306108],[-40.844243,-4.306383],[-40.843486,-4.307002],[-40.843211,-4.308239],[-40.841905,-4.309889],[-40.841424,-4.310164],[-40.840187,-4.310164],[-40.839843,-4.310507],[-40.840187,-4.312226],[-40.839293,-4.313257],[-40.839362,-4.313944],[-40.840806,-4.315182],[-40.841562,-4.316282],[-40.841837,-4.316144],[-40.842318,-4.315251],[-40.843005,-4.315113],[-40.843624,-4.315526],[-40.843968,-4.316282],[-40.844105,-4.31745],[-40.844724,-4.318275],[-40.845824,-4.318413],[-40.846236,-4.318825],[-40.846305,-4.319994],[-40.847267,-4.321369],[-40.802655,-4.345085],[-40.802586,-4.345291],[-40.80348,-4.346528],[-40.803755,-4.34756],[-40.803892,-4.352165],[-40.803067,-4.354365],[-40.802655,-4.356908],[-40.802105,-4.357321],[-40.801486,-4.358352],[-40.800043,-4.362133],[-40.79853,-4.362958],[-40.797362,-4.362477],[-40.791725,-4.361239],[-40.786845,-4.360827],[-40.785607,-4.360346],[-40.784301,-4.360208],[-40.783201,-4.360414],[-40.781139,-4.361583],[-40.778665,-4.362477],[-40.777084,-4.361377],[-40.776534,-4.360483],[-40.775021,-4.358902],[-40.772753,-4.354228],[-40.771584,-4.353334],[-40.764642,-4.353128],[-40.762854,-4.353884],[-40.761755,-4.354709],[-40.761548,-4.355602],[-40.762167,-4.356496],[-40.762098,-4.357321],[-40.762923,-4.360277],[-40.76416,-4.361514],[-40.76581,-4.362064],[-40.768422,-4.36337],[-40.771103,-4.365295],[-40.772272,-4.366326],[-40.772615,-4.367082],[-40.773165,-4.367564],[-40.773578,-4.368595],[-40.772615,-4.370588],[-40.771172,-4.372582],[-40.771034,-4.373475],[-40.771447,-4.374919],[-40.770278,-4.379525],[-40.770347,-4.380625],[-40.776465,-4.383787],[-40.778115,-4.38633],[-40.78162,-4.387705],[-40.782445,-4.388393],[-40.78217,-4.390661],[-40.783751,-4.396298],[-40.783614,-4.39726],[-40.782445,-4.399048],[-40.782858,-4.399941],[-40.784095,-4.400904],[-40.785539,-4.402553],[-40.786226,-4.402966],[-40.78712,-4.404547],[-40.786776,-4.405716],[-40.78492,-4.406403],[-40.78162,-4.406609],[-40.779489,-4.407297],[-40.779214,-4.407778],[-40.779214,-4.40874],[-40.779696,-4.409428],[-40.785126,-4.412177],[-40.78547,-4.41314],[-40.784095,-4.414308],[-40.78437,-4.415546],[-40.785401,-4.416577],[-40.785814,-4.418708],[-40.786157,-4.419395],[-40.787807,-4.420426],[-40.789113,-4.422283],[-40.793512,-4.423726],[-40.798393,-4.421733],[-40.799424,-4.421664],[-40.80018,-4.422076],[-40.800524,-4.423039],[-40.801418,-4.423176],[-40.801692,-4.423795],[-40.80238,-4.42407],[-40.803342,-4.425582],[-40.803548,-4.425376],[-40.803961,-4.425582],[-40.803892,-4.426132],[-40.804648,-4.426407],[-40.804992,-4.427507],[-40.806367,-4.428538],[-40.80726,-4.4295],[-40.80781,-4.4306],[-40.80836,-4.430875],[-40.809529,-4.432181],[-40.809254,-4.432938],[-40.809873,-4.433556],[-40.810629,-4.436925],[-40.810697,-4.439193],[-40.811179,-4.440637],[-40.811179,-4.441255],[-40.81166,-4.442218],[-40.81166,-4.443455],[-40.81221,-4.444555],[-40.814134,-4.446411],[-40.815166,-4.446549],[-40.816747,-4.44813],[-40.81819,-4.449092],[-40.820184,-4.449848],[-40.82094,-4.450536],[-40.820802,-4.451429],[-40.82204,-4.452735],[-40.822521,-4.452873],[-40.822796,-4.453423],[-40.822727,-4.454454],[-40.822933,-4.454866],[-40.823896,-4.45521],[-40.824858,-4.456241],[-40.825477,-4.458441],[-40.82637,-4.458785],[-40.827333,-4.458853],[-40.828226,-4.45851],[-40.828982,-4.458716],[-40.829395,-4.458372],[-40.830288,-4.458372],[-40.83077,-4.458441],[-40.831938,-4.459266],[-40.833382,-4.459403],[-40.834619,-4.459885],[-40.835719,-4.460091],[-40.836612,-4.459953],[-40.837369,-4.460297],[-40.837712,-4.460022],[-40.838193,-4.460091],[-40.838468,-4.460228],[-40.838537,-4.46071],[-40.839431,-4.460847],[-40.839568,-4.461466],[-40.840806,-4.461534],[-40.841974,-4.462428],[-40.842662,-4.462291],[-40.843418,-4.462634],[-40.844861,-4.462841],[-40.845892,-4.46339],[-40.848367,-4.463665],[-40.849673,-4.464147],[-40.852354,-4.464215],[-40.852904,-4.464697],[-40.853179,-4.465659],[-40.854141,-4.46614],[-40.854829,-4.46614],[-40.855928,-4.465659],[-40.856685,-4.46559],[-40.857991,-4.465865],[-40.858884,-4.465453],[-40.860603,-4.466415],[-40.861015,-4.466415],[-40.86184,-4.465796],[-40.862871,-4.465659],[-40.864177,-4.464078],[-40.86514,-4.46339],[-40.865621,-4.463734],[-40.866033,-4.465384],[-40.867064,-4.46669],[-40.867752,-4.466621],[-40.868852,-4.465865],[-40.871464,-4.464765],[-40.873388,-4.464697],[-40.87387,-4.46504],[-40.874213,-4.466484],[-40.874419,-4.466621],[-40.875863,-4.465865],[-40.876619,-4.465728],[-40.878544,-4.46724],[-40.880262,-4.467446],[-40.882256,-4.468409],[-40.883424,-4.469371],[-40.88473,-4.470059],[-40.886243,-4.470196],[-40.886655,-4.470471],[-40.88858,-4.471846],[-40.889474,-4.471846],[-40.891398,-4.470402],[-40.892842,-4.470471],[-40.893873,-4.471158],[-40.894423,-4.471227],[-40.894835,-4.470815],[-40.894904,-4.470059],[-40.895798,-4.469302],[-40.896279,-4.469371],[-40.897379,-4.470333],[-40.898066,-4.470333],[-40.899853,-4.469784],[-40.900678,-4.470402],[-40.901778,-4.470333],[-40.903084,-4.470127],[-40.904321,-4.469371],[-40.905696,-4.470265],[-40.906109,-4.470196],[-40.906865,-4.47054],[-40.907552,-4.470471],[-40.908308,-4.469852],[-40.909958,-4.469302],[-40.910852,-4.469646],[-40.911608,-4.469577],[-40.912364,-4.469165],[-40.913258,-4.469371],[-40.914082,-4.469852],[-40.914839,-4.469852],[-40.916488,-4.468615],[-40.917107,-4.468959],[-40.919169,-4.468271],[-40.920269,-4.468821],[-40.92185,-4.468821],[-41.025235,-4.45466],[-41.02551,-4.455485],[-41.026266,-4.455485],[-41.026954,-4.455898],[-41.030391,-4.459541],[-41.032247,-4.460985],[-41.034171,-4.461741],[-41.037196,-4.462084],[-41.041595,-4.463253],[-41.042145,-4.463597],[-41.042901,-4.464559],[-41.043864,-4.464972],[-41.047163,-4.465728],[-41.048813,-4.466965],[-41.053969,-4.469509],[-41.055618,-4.471021],[-41.057062,-4.47164],[-41.057887,-4.47164],[-41.058918,-4.472671],[-41.059674,-4.472671],[-41.060568,-4.473014],[-41.061324,-4.473771],[-41.064211,-4.474252],[-41.065654,-4.473977],[-41.065861,-4.473633],[-41.068266,-4.473358],[-41.069091,-4.473564],[-41.070191,-4.474664],[-41.071291,-4.474664],[-41.074453,-4.473633],[-41.075347,-4.474046],[-41.077959,-4.474183],[-41.079127,-4.474664],[-41.081121,-4.474252],[-41.082221,-4.474321],[-41.084008,-4.474939],[-41.084902,-4.47487],[-41.086895,-4.475352],[-41.088132,-4.475283],[-41.088476,-4.475558],[-41.089438,-4.475627],[-41.090676,-4.476245],[-41.092669,-4.475283],[-41.093013,-4.475695],[-41.093357,-4.475764],[-41.094113,-4.477001],[-41.095213,-4.476658],[-41.099956,-4.476864],[-41.102636,-4.47817],[-41.10463,-4.478858],[-41.107173,-4.478858],[-41.109167,-4.478514],[-41.111573,-4.478514],[-41.116453,-4.477964],[-41.118859,-4.478101],[-41.119478,-4.478239],[-41.120715,-4.47927],[-41.12154,-4.481264],[-41.122434,-4.482226],[-41.123808,-4.482638],[-41.125252,-4.482638],[-41.127452,-4.480851],[-41.133363,-4.478033],[-41.135357,-4.476589],[-41.138038,-4.473908],[-41.142093,-4.470815],[-41.146424,-4.468959],[-41.151029,-4.469096],[-41.153573,-4.468409],[-41.155841,-4.467103],[-41.158453,-4.46614],[-41.159553,-4.466278],[-41.161203,-4.465934],[-41.163815,-4.466415],[-41.166565,-4.466553],[-41.168146,-4.467378],[-41.177494,-4.467515],[-41.177563,-4.46394],[-41.178388,-4.459266],[-41.177838,-4.457204],[-41.176463,-4.455554],[-41.175845,-4.451636],[-41.175088,-4.449573],[-41.176532,-4.446755],[-41.177288,-4.443455],[-41.177013,-4.441255],[-41.175432,-4.439606],[-41.17117,-4.4317],[-41.165121,-4.422695],[-41.163678,-4.418845],[-41.161066,-4.41479],[-41.159622,-4.410596],[-41.159278,-4.408259],[-41.159553,-4.406197],[-41.158453,-4.402966],[-41.158453,-4.402004],[-41.158866,-4.392036],[-41.159759,-4.390111],[-41.161615,-4.388255],[-41.161753,-4.387224],[-41.159966,-4.381587],[-41.159141,-4.380143],[-41.157835,-4.378562],[-41.152267,-4.374575],[-41.149861,-4.368182],[-41.14938,-4.367564],[-41.148967,-4.367151],[-41.147799,-4.367151],[-41.147318,-4.36832],[-41.145255,-4.369007],[-41.14498,-4.370107],[-41.14443,-4.370588],[-41.143537,-4.370726],[-41.143124,-4.370519],[-41.142437,-4.370588],[-41.141543,-4.370038],[-41.140306,-4.370107],[-41.007363,-4.273043]]]}}]}